#dP2022  7 15  0  0  0.00000000      96 __u+U ITR00 EXT  IAC
## 2218 432000.00000000   900.00000000 59775 0.0000000000000
+  116   C06C07C08C09C10C11C12C13C14C16C19C20C21C22C23C24C25
+        C26C27C28C29C30C32C33C34C35C36C37C38C39C40C41C42C43
+        C44C45C46E01E02E03E04E05E07E08E09E10E11E12E13E14E15
+        E18E19E21E24E25E26E27E30E31E33E34E36G01G02G03G04G05
+        G06G07G08G09G10G11G12G13G14G15G16G17G18G19G20G21G22
+        G23G24G25G26G27G28G29G30G31G32J02J03R01R02R03R04R05
+        R07R08R09R11R12R13R14R15R17R18R19R20R21R24  0  0  0
++        10  8  9  8  8  9  8  9  9 10  9  7 10  8  8  9 10
++         9  8  9  9  8  8  8  9  9  9  9 10 10 10  9  9 10
++         9  9  7  7  8  9  9  8  7  7  8 10  8  9  8 10  6
++        11  8  8  8  8  8  7  8  9  9  8  8  8  5  8  8  7
++         8  9  7  8  8  8  8  7  8  7  7  9  8  8  8  8  8
++         9  9  8  7  7  9  8  8  8  8 11  9  9  9 10  9  8
++         9  7  8  8  8 10  8  9  8 10  9  9  7 11  0  0  0
%c M  cc GPS ccc cccc cccc cccc cccc ccccc ccccc ccccc ccccc
%c cc cc ccc ccc cccc cccc cccc cccc ccccc ccccc ccccc ccccc
%f  0.0000000  0.000000000  0.00000000000  0.000000000000000
%f  0.0000000  0.000000000  0.00000000000  0.000000000000000
%i    0    0    0    0      0      0      0      0         0
%i    0    0    0    0      0      0      0      0         0
/* IAC                                ULTRA-RAPID PREDICTION
/* S/V CLOCKS ARE ALIGNED TO GNSS TIME                      
/* G:C1WC2W R:C1PC2P E:C1XC5X C:C2IC6I J:C1CC2S             
/* PCV:IGS14_2215 OL/AL:FES2004  NONE     YN ORB:CoN CLK:CoN
*  2022 07 15 12 15  0.00000000
PC06   -732.073264  33967.698116  25129.638376    398.850175
PC07 -12974.232793  26831.948661 -29830.834634   -432.229052
PC08 -14647.206964  38634.833393   7878.536531    404.981037
PC09   4371.698251  37481.065349  19692.644498   -927.093594
PC10  -6172.580102  27201.837569 -31417.722704    118.263815
PC11 -19020.867551  -4714.698471 -19824.146553    475.781613
PC12 -18631.529369 -19981.007197  -5713.304631   -576.541109
PC13 -10286.130432  38941.212275  12104.131927     24.623497
PC14 -27812.814997   2555.845455   -711.761956    542.463110
PC16  -2381.027744  32423.951831  27177.143823    143.117000
PC19  25098.605560  -8640.135993  -8550.634193   -214.684408
PC20  26471.659481   2845.348730   8316.196210   -963.909781
PC21 -12007.241558 -13413.109327 -21315.345962   -682.447553
PC22   9115.762180 -15630.319460 -21237.693287   -962.852782
PC23 -10169.312712  25922.370185  -1830.614662   -945.715542
PC24 -15426.795439  -5396.751288  22616.533365   -967.783852
PC25 -17803.824834  16089.142330  14225.224622   -707.286410
PC26  -5010.266380 -20969.790923  17727.350181    709.236632
PC27  14336.751464  23769.002893  -2949.937191    754.565542
PC28     60.163034  21455.769326 -17842.281483     90.247076
PC29  14794.899102  -6629.472556  22701.958045    581.986352
PC30  21172.950359  12336.231137  13356.801047    501.103038
PC32  11994.336265  13380.699317  21360.090818   -972.530675
PC33 -25110.239613   8767.940591   8486.204488   -171.073259
PC34 -21158.832810 -11364.655327 -14209.247615   -358.348355
PC35    291.607057 -20864.719378  18501.803440    366.869473
PC36  18255.319487 -15214.085215 -14600.375758   -973.237602
PC37   3621.539452  21823.309495 -16978.550290   -917.237274
PC38 -18312.917825  37868.065147   -127.487379     10.275480
PC39  -6000.671530  28401.433212  30666.110682     -0.068651
PC40 -19264.986890  20535.296518 -31457.442588     -0.612259
PC41  -9633.567193  15655.368141  21047.915008    -82.402873
PC42 -26105.491545  -3483.307885  -9220.107928   -953.615435
PC43 -15358.187063   5956.951536 -22536.291174      3.052057
PC44 -15057.602386 -23272.039247   3081.944588    724.773672
PC45   9946.298894 -25993.652846   2180.965557    809.525847
PC46  16028.884382   3517.607449 -22564.593590   -433.103087
PE01   7509.027609  15036.162345 -24359.450775   -515.585507
PE02  -7676.660255 -14932.616029  24380.822492    312.087425
PE03 -19010.476926 -18501.647273 -13147.040977   -579.226937
PE04  27904.602953   8645.960260  -4751.578380  -1071.897594
PE05   1274.740095 -17682.595310 -23698.900753   -162.767984
PE07 -20504.088534   6600.779688  20317.046424   -687.706999
PE08 -27940.450800  -8451.101193   4959.187239   -564.024431
PE09  20410.401025  -6559.829382 -20396.908870   -588.392709
PE10  15738.870556  -3373.813708  24825.259208   -500.696560
PE11  12744.490743 -15009.304630  22079.841413   3001.920606
PE12  16206.698411   8170.798333  23374.725496    -63.292916
PE13 -12946.793239  14284.029925 -22467.567429    429.818555
PE14 -23325.733054 -17971.075807   2730.273866  -1778.446428
PE15 -16147.569387  -8307.068984 -23378.137975    733.125007
PE18  12093.274728  21015.429275 -12768.284440  -1211.515764
PE19  16853.402553  19028.167605  15177.086027  -5087.201564
PE21 -10938.308716  21937.274459 -16588.373880   -746.034241
PE24  24820.221351 -15987.916998  -2267.724760   -726.100252
PE25  11191.516598 -21962.113782  16399.316652   -581.134677
PE26  -1715.760105  28587.849770  -7476.363874  -1379.575925
PE27 -24383.696662  16734.654900   1193.688815   -345.318409
PE30 -22960.704830    817.904352  18654.162692   -674.093927
PE31  23357.220620  -1753.345842 -18085.343386   -499.957903
PE33   9803.499884  25885.064572  10490.462799   -454.686494
PE34  -9963.264488 -25755.856810 -10684.397009   -485.962328
PE36   2169.533445 -28305.745736   8369.067811   -402.495652
PG01  13047.838463 -11590.698612  19601.225522    321.000060
PG02      0.000000      0.000000      0.000000   -651.384438
PG03  23316.047447 -12504.955373   1331.325283   -307.714262
PG04  19040.481605  -3197.399821 -18268.721515   -145.636527
PG05 -22445.892896   2547.971828 -14257.219580    -89.219165
PG06  -6434.440686 -23757.045815  -9825.752672    385.841240
PG07   5934.650944 -24121.989055  -8252.865185    319.203142
PG08  23429.989422   2859.063691  12477.733197    -76.278095
PG09   9291.041667 -12387.294353 -21651.859763   -318.813158
PG10  -1127.414103  16836.547611  20580.856591   -492.632497
PG11 -12550.324368 -13663.691452 -19019.801519    -10.710572
PG12 -24532.281587   9238.518445   3640.147913   -246.761991
PG13 -22736.052547 -12705.615372   5516.066504    348.866387
PG14   3269.731448 -17566.303451  19622.806042   -111.795621
PG15 -23773.875932   -345.245722  11724.380434    -45.250901
PG16  19800.532131   4179.096897 -17708.936239   -515.451978
PG17  -6773.410461 -18841.470072  17855.823219    637.113518
PG18  -6278.515241  24263.016230  -8619.162794    112.639741
PG19 -15025.707884 -19392.028302  10218.452209    184.010738
PG20 -14952.728241  -7141.697930 -20708.399241    503.036518
PG21  15506.671031   -830.459280  22180.378648    161.100593
PG22  16740.450474  18969.636247   8792.416617    292.733772
PG23 -11909.602410  18895.899210  14274.428923    -33.011093
PG24 -14611.206645   7445.852991  20517.962791    196.357682
PG25 -18057.682309  17523.783073  -8343.559279    349.416399
PG26  11783.004630  10938.724480 -21258.706675    218.338738
PG27  23452.443254  12892.037050    622.442537    220.694825
PG28  -5867.972682 -14138.651918  22218.647280    334.574181
PG29  -9709.909756  11271.200828 -22057.264335   -533.755093
PG30   -785.749390 -26371.647761   1507.009407   -534.027886
PG31   8157.436809  21991.256137 -12137.201170   -185.838343
PG32  10497.204244  18722.186997  15914.172157   -176.883862
PJ02 -36036.244929  21749.119615   1354.370856     -1.719511
PJ03 -18331.917956  25352.725552 -23610.303490     -0.138406
PR01 -12284.933519 -10213.149721 -19888.972364     11.514732
PR02 -24842.818648  -3988.298276  -3949.231077    524.178343
PR03 -21412.243173   4546.956767  13094.283417     60.250884
PR04  -6193.289824  10080.042196  22625.804849    150.731986
PR05  12444.964254  10312.090240  19753.991486     96.267550
PR07  21055.038276  -4780.647934 -13581.887873     37.894182
PR08   6062.628599 -10205.933502 -22523.542158    -66.206314
PR09  13434.180809   -990.185290 -21623.650652     65.896850
PR11  11096.719572 -22100.046836   6233.468710     33.228977
PR12  -1770.215765 -14981.320312  20603.482040     19.307823
PR13 -12607.853590   -215.545406  22164.475759    -24.631937
PR14 -16860.162181  16187.736234  10258.112776     24.871325
PR15 -10840.813713  21980.771222  -7058.723775     94.677971
PR17  -8966.105300   5689.367743 -23190.628216    543.698894
PR18   1024.861197  19626.616578 -16281.660499      4.709510
PR19   9203.968409  23697.385690  -2054.685003   -196.389636
PR20  13813.382551  13141.255931  16966.078783    -74.635048
PR21   8105.116038  -7208.874653  23081.176630   -317.580896
PR24 -14426.339234 -12012.212937 -17270.840185    103.690923
EOF
